[{"CCSDS_OMM_VERS":"2.0","COMMENT":"GENERATED VIA SPACE-TRACK.ORG API","CREATION_DATE":"2021-05-12T06:46:10","ORIGINATOR":"18 SPCS","OBJECT_NAME":"ONEWEB-0220","OBJECT_ID":"2021-031Y","CENTER_NAME":"EARTH","REF_FRAME":"TEME","TIME_SYSTEM":"UTC","MEAN_ELEMENT_THEORY":"SGP4","EPOCH":"2021-05-12T04:00:00.999936","MEAN_MOTION":"15.42325517","ECCENTRICITY":"0.00104020","INCLINATION":"87.3980","RA_OF_ASC_NODE":"307.3753","ARG_OF_PERICENTER":"186.7271","MEAN_ANOMALY":"318.2778","EPHEMERIS_TYPE":"0","CLASSIFICATION_TYPE":"U","NORAD_CAT_ID":"48232","ELEMENT_SET_NO":"999","REV_AT_EPOCH":"249","BSTAR":"-0.00112940000000","MEAN_MOTION_DOT":"-0.00048277","MEAN_MOTION_DDOT":"0.0000000000000","SEMIMAJOR_AXIS":"6817.385","PERIOD":"93.366","APOAPSIS":"446.341","PERIAPSIS":"432.158","OBJECT_TYPE":"PAYLOAD","RCS_SIZE":"LARGE","COUNTRY_CODE":"UK","LAUNCH_DATE":"2021-04-25","SITE":"VOSTO","DECAY_DATE":null,"FILE":"3035216","GP_ID":"177107845","TLE_LINE0":"0 ONEWEB-0220","TLE_LINE1":"1 48232U 21031Y   21132.16667824 -.00048277  00000-0 -11294-2 0  9994","TLE_LINE2":"2 48232  87.3980 307.3753 0010402 186.7271 318.2778 15.42325517  2499"},{"CCSDS_OMM_VERS":"2.0","COMMENT":"GENERATED VIA SPACE-TRACK.ORG API","CREATION_DATE":"2021-05-12T14:36:10","ORIGINATOR":"18 SPCS","OBJECT_NAME":"ONEWEB-0220","OBJECT_ID":"2021-031Y","CENTER_NAME":"EARTH","REF_FRAME":"TEME","TIME_SYSTEM":"UTC","MEAN_ELEMENT_THEORY":"SGP4","EPOCH":"2021-05-12T14:00:01.000224","MEAN_MOTION":"15.42339853","ECCENTRICITY":"0.00105320","INCLINATION":"87.3980","RA_OF_ASC_NODE":"307.2258","ARG_OF_PERICENTER":"185.9554","MEAN_ANOMALY":"110.8734","EPHEMERIS_TYPE":"0","CLASSIFICATION_TYPE":"U","NORAD_CAT_ID":"48232","ELEMENT_SET_NO":"999","REV_AT_EPOCH":"255","BSTAR":"-0.00131060000000","MEAN_MOTION_DOT":"-0.00056006","MEAN_MOTION_DDOT":"0.0000000000000","SEMIMAJOR_AXIS":"6817.343","PERIOD":"93.365","APOAPSIS":"446.388","PERIAPSIS":"432.028","OBJECT_TYPE":"PAYLOAD","RCS_SIZE":"LARGE","COUNTRY_CODE":"UK","LAUNCH_DATE":"2021-04-25","SITE":"VOSTO","DECAY_DATE":null,"FILE":"3035479","GP_ID":"177113247","TLE_LINE0":"0 ONEWEB-0220","TLE_LINE1":"1 48232U 21031Y   21132.58334491 -.00056006  00000-0 -13106-2 0  9994","TLE_LINE2":"2 48232  87.3980 307.2258 0010532 185.9554 110.8734 15.42339853  2550"},{"CCSDS_OMM_VERS":"2.0","COMMENT":"GENERATED VIA SPACE-TRACK.ORG API","CREATION_DATE":"2021-05-12T20:45:32","ORIGINATOR":"18 SPCS","OBJECT_NAME":"ONEWEB-0220","OBJECT_ID":"2021-031Y","CENTER_NAME":"EARTH","REF_FRAME":"TEME","TIME_SYSTEM":"UTC","MEAN_ELEMENT_THEORY":"SGP4","EPOCH":"2021-05-12T16:00:01.999584","MEAN_MOTION":"15.42327418","ECCENTRICITY":"0.00105360","INCLINATION":"87.3980","RA_OF_ASC_NODE":"307.1954","ARG_OF_PERICENTER":"185.6889","MEAN_ANOMALY":"213.5793","EPHEMERIS_TYPE":"0","CLASSIFICATION_TYPE":"U","NORAD_CAT_ID":"48232","ELEMENT_SET_NO":"999","REV_AT_EPOCH":"193","BSTAR":"-0.00102340000000","MEAN_MOTION_DOT":"-0.00043772","MEAN_MOTION_DDOT":"0.0000000000000","SEMIMAJOR_AXIS":"6817.379","PERIOD":"93.365","APOAPSIS":"446.427","PERIAPSIS":"432.061","OBJECT_TYPE":"PAYLOAD","RCS_SIZE":"LARGE","COUNTRY_CODE":"UK","LAUNCH_DATE":"2021-04-25","SITE":"VOSTO","DECAY_DATE":null,"FILE":"3035695","GP_ID":"177138988","TLE_LINE0":"0 ONEWEB-0220","TLE_LINE1":"1 48232U 21031Y   21132.66668981 -.00043772  00000-0 -10234-2 0  9992","TLE_LINE2":"2 48232  87.3980 307.1954 0010536 185.6889 213.5793 15.42327418  1935"},{"CCSDS_OMM_VERS":"2.0","COMMENT":"GENERATED VIA SPACE-TRACK.ORG API","CREATION_DATE":"2021-05-13T02:57:01","ORIGINATOR":"18 SPCS","OBJECT_NAME":"ONEWEB-0220","OBJECT_ID":"2021-031Y","CENTER_NAME":"EARTH","REF_FRAME":"TEME","TIME_SYSTEM":"UTC","MEAN_ELEMENT_THEORY":"SGP4","EPOCH":"2021-05-12T20:00:01.000224","MEAN_MOTION":"15.42276864","ECCENTRICITY":"0.00104960","INCLINATION":"87.3981","RA_OF_ASC_NODE":"307.1356","ARG_OF_PERICENTER":"184.7583","MEAN_ANOMALY":"59.1949","EPHEMERIS_TYPE":"0","CLASSIFICATION_TYPE":"U","NORAD_CAT_ID":"48232","ELEMENT_SET_NO":"999","REV_AT_EPOCH":"195","BSTAR":"0.00142860000000","MEAN_MOTION_DOT":"0.00061938","MEAN_MOTION_DDOT":"0.0000000000000","SEMIMAJOR_AXIS":"6817.528","PERIOD":"93.368","APOAPSIS":"446.549","PERIAPSIS":"432.238","OBJECT_TYPE":"PAYLOAD","RCS_SIZE":"LARGE","COUNTRY_CODE":"UK","LAUNCH_DATE":"2021-04-25","SITE":"VOSTO","DECAY_DATE":null,"FILE":"3035885","GP_ID":"177166151","TLE_LINE0":"0 ONEWEB-0220","TLE_LINE1":"1 48232U 21031Y   21132.83334491  .00061938  00000-0  14286-2 0  9990","TLE_LINE2":"2 48232  87.3981 307.1356 0010496 184.7583  59.1949 15.42276864  1955"},{"CCSDS_OMM_VERS":"2.0","COMMENT":"GENERATED VIA SPACE-TRACK.ORG API","CREATION_DATE":"2021-05-13T06:36:11","ORIGINATOR":"18 SPCS","OBJECT_NAME":"ONEWEB-0220","OBJECT_ID":"2021-031Y","CENTER_NAME":"EARTH","REF_FRAME":"TEME","TIME_SYSTEM":"UTC","MEAN_ELEMENT_THEORY":"SGP4","EPOCH":"2021-05-13T04:00:00.999936","MEAN_MOTION":"15.42331053","ECCENTRICITY":"0.00106170","INCLINATION":"87.3980","RA_OF_ASC_NODE":"307.0176","ARG_OF_PERICENTER":"182.5837","MEAN_ANOMALY":"110.8259","EPHEMERIS_TYPE":"0","CLASSIFICATION_TYPE":"U","NORAD_CAT_ID":"48232","ELEMENT_SET_NO":"999","REV_AT_EPOCH":"264","BSTAR":"-0.00105000000000","MEAN_MOTION_DOT":"-0.00044911","MEAN_MOTION_DDOT":"0.0000000000000","SEMIMAJOR_AXIS":"6817.369","PERIOD":"93.365","APOAPSIS":"446.472","PERIAPSIS":"431.996","OBJECT_TYPE":"PAYLOAD","RCS_SIZE":"LARGE","COUNTRY_CODE":"UK","LAUNCH_DATE":"2021-04-25","SITE":"VOSTO","DECAY_DATE":null,"FILE":"3035939","GP_ID":"177167439","TLE_LINE0":"0 ONEWEB-0220","TLE_LINE1":"1 48232U 21031Y   21133.16667824 -.00044911  00000-0 -10500-2 0  9995","TLE_LINE2":"2 48232  87.3980 307.0176 0010617 182.5837 110.8259 15.42331053  2644"},{"CCSDS_OMM_VERS":"2.0","COMMENT":"GENERATED VIA SPACE-TRACK.ORG API","CREATION_DATE":"2021-05-13T17:50:07","ORIGINATOR":"18 SPCS","OBJECT_NAME":"ONEWEB-0220","OBJECT_ID":"2021-031Y","CENTER_NAME":"EARTH","REF_FRAME":"TEME","TIME_SYSTEM":"UTC","MEAN_ELEMENT_THEORY":"SGP4","EPOCH":"2021-05-13T12:00:00.999648","MEAN_MOTION":"15.42330259","ECCENTRICITY":"0.00107650","INCLINATION":"87.3981","RA_OF_ASC_NODE":"306.8983","ARG_OF_PERICENTER":"182.0250","MEAN_ANOMALY":"160.8524","EPHEMERIS_TYPE":"0","CLASSIFICATION_TYPE":"U","NORAD_CAT_ID":"48232","ELEMENT_SET_NO":"999","REV_AT_EPOCH":"205","BSTAR":"-0.00019482000000","MEAN_MOTION_DOT":"-0.00008333","MEAN_MOTION_DDOT":"0.0000000000000","SEMIMAJOR_AXIS":"6817.371","PERIOD":"93.365","APOAPSIS":"446.575","PERIAPSIS":"431.897","OBJECT_TYPE":"PAYLOAD","RCS_SIZE":"LARGE","COUNTRY_CODE":"UK","LAUNCH_DATE":"2021-04-25","SITE":"VOSTO","DECAY_DATE":null,"FILE":"3036216","GP_ID":"177195881","TLE_LINE0":"0 ONEWEB-0220","TLE_LINE1":"1 48232U 21031Y   21133.50001157 -.00008333  00000-0 -19482-3 0  9991","TLE_LINE2":"2 48232  87.3981 306.8983 0010765 182.0250 160.8524 15.42330259  2058"},{"CCSDS_OMM_VERS":"2.0","COMMENT":"GENERATED VIA SPACE-TRACK.ORG API","CREATION_DATE":"2021-05-13T14:46:10","ORIGINATOR":"18 SPCS","OBJECT_NAME":"ONEWEB-0220","OBJECT_ID":"2021-031Y","CENTER_NAME":"EARTH","REF_FRAME":"TEME","TIME_SYSTEM":"UTC","MEAN_ELEMENT_THEORY":"SGP4","EPOCH":"2021-05-13T12:00:00.999648","MEAN_MOTION":"15.42330259","ECCENTRICITY":"0.00107650","INCLINATION":"87.3981","RA_OF_ASC_NODE":"306.8983","ARG_OF_PERICENTER":"182.0250","MEAN_ANOMALY":"160.8524","EPHEMERIS_TYPE":"0","CLASSIFICATION_TYPE":"U","NORAD_CAT_ID":"48232","ELEMENT_SET_NO":"999","REV_AT_EPOCH":"269","BSTAR":"-0.00019482000000","MEAN_MOTION_DOT":"-0.00008333","MEAN_MOTION_DDOT":"0.0000000000000","SEMIMAJOR_AXIS":"6817.371","PERIOD":"93.365","APOAPSIS":"446.575","PERIAPSIS":"431.897","OBJECT_TYPE":"PAYLOAD","RCS_SIZE":"LARGE","COUNTRY_CODE":"UK","LAUNCH_DATE":"2021-04-25","SITE":"VOSTO","DECAY_DATE":null,"FILE":"3036108","GP_ID":"177170722","TLE_LINE0":"0 ONEWEB-0220","TLE_LINE1":"1 48232U 21031Y   21133.50001157 -.00008333  00000-0 -19482-3 0  9991","TLE_LINE2":"2 48232  87.3981 306.8983 0010765 182.0250 160.8524 15.42330259  2698"},{"CCSDS_OMM_VERS":"2.0","COMMENT":"GENERATED VIA SPACE-TRACK.ORG API","CREATION_DATE":"2021-05-14T18:47:57","ORIGINATOR":"18 SPCS","OBJECT_NAME":"ONEWEB-0220","OBJECT_ID":"2021-031Y","CENTER_NAME":"EARTH","REF_FRAME":"TEME","TIME_SYSTEM":"UTC","MEAN_ELEMENT_THEORY":"SGP4","EPOCH":"2021-05-14T12:00:00.999648","MEAN_MOTION":"15.42343803","ECCENTRICITY":"0.00109640","INCLINATION":"87.3990","RA_OF_ASC_NODE":"306.5405","ARG_OF_PERICENTER":"177.9305","MEAN_ANOMALY":"313.4041","EPHEMERIS_TYPE":"0","CLASSIFICATION_TYPE":"U","NORAD_CAT_ID":"48232","ELEMENT_SET_NO":"999","REV_AT_EPOCH":"184","BSTAR":"-0.00009391000000","MEAN_MOTION_DOT":"-0.00003996","MEAN_MOTION_DDOT":"0.0000000000000","SEMIMAJOR_AXIS":"6817.331","PERIOD":"93.364","APOAPSIS":"446.671","PERIAPSIS":"431.721","OBJECT_TYPE":"PAYLOAD","RCS_SIZE":"LARGE","COUNTRY_CODE":"UK","LAUNCH_DATE":"2021-04-25","SITE":"VOSTO","DECAY_DATE":null,"FILE":"3036770","GP_ID":"177230932","TLE_LINE0":"0 ONEWEB-0220","TLE_LINE1":"1 48232U 21031Y   21134.50001157 -.00003996  00000-0 -93910-4 0  9991","TLE_LINE2":"2 48232  87.3990 306.5405 0010964 177.9305 313.4041 15.42343803  1844"}]